NORAD_CAT_ID,OBJECT_NAME,OBJECT_TYPE,EPOCH,MEAN_MOTION,ECCENTRICITY,INCLINATION,RA_OF_ASC_NODE,ARG_OF_PERICENTER,MEAN_ANOMALY,BSTAR,MEAN_MOTION_DOT,MEAN_MOTION_DDOT,TLE_LINE0,TLE_LINE1,TLE_LINE2,SEMIMAJOR_AXIS,PERIOD,APOGEE,PERIGEE,DECAYED
53896.0,STARLINK-5037,PAYLOAD,2023-04-26 06:52:42,15.08827194,0.0001052,53.2168,350.426,111.0705,249.04,1.7867e-06,-2.59e-06,0.0,0 STARLINK-5037,1 53896U 22119L   23116.28660016 -.00000259  00000-0  17867-5 0  9999,2 53896  53.2168 350.4260 0001052 111.0705 249.0400 15.08827194 33416,6917.92,95.438,540.512,539.057,0.0
53896.0,STARLINK-5037,PAYLOAD,2023-04-26 16:25:00,15.08835555,4.57e-05,53.2219,348.6467,36.3756,323.7268,0.00017077,2.431e-05,0.0,0 STARLINK-5037,1 53896U 22119L   23116.68403670  .00002431  00000-0  17077-3 0  9998,2 53896  53.2219 348.6467 0000457  36.3756 323.7268 15.08835555 33472,6917.894,95.438,540.075,539.443,0.0
53896.0,STARLINK-5037,PAYLOAD,2023-04-27 16:15:49,15.08821949,9.19e-05,53.2177,344.1833,93.5091,266.6006,0.0018463,0.00029203,0.0,0 STARLINK-5037,1 53896U 22119L   23117.67765784  .00029203  00000-0  18463-2 0  9990,2 53896  53.2177 344.1833 0000919  93.5091 266.6006 15.08821949 33201,6917.936,95.439,540.436,539.165,0.0
53896.0,STARLINK-5037,PAYLOAD,2023-04-28 00:12:44,15.08846623,9.02e-05,53.2159,342.695,105.4237,254.6855,0.00069605,0.00010809,0.0,0 STARLINK-5037,1 53896U 22119L   23118.00884300  .00010809  00000-0  69605-3 0  9991,2 53896  53.2159 342.6950 0000902 105.4237 254.6855 15.08846623 33251,6917.86,95.437,540.349,539.101,0.0
53896.0,STARLINK-5037,PAYLOAD,2023-04-28 08:09:40,15.08832925,0.0001403,53.2165,341.2089,84.1965,275.9187,0.00033009,4.968e-05,0.0,0 STARLINK-5037,1 53896U 22119L   23118.34005197  .00004968  00000-0  33009-3 0  9995,2 53896  53.2165 341.2089 0001403  84.1965 275.9187 15.08832925 33304,6917.902,95.438,540.738,538.796,0.0
53896.0,STARLINK-5037,PAYLOAD,2023-04-28 20:52:44,15.08848796,0.0001184,53.2166,338.8305,82.8958,277.2169,-5.251e-05,-1.124e-05,0.0,0 STARLINK-5037,1 53896U 22119L   23118.86996034 -.00001124  00000-0 -52510-4 0  9993,2 53896  53.2166 338.8305 0001184  82.8958 277.2169 15.08848796 33387,6917.854,95.437,540.538,538.899,0.0
53896.0,STARLINK-5037,PAYLOAD,2023-04-29 00:03:30,15.08847685,7.65e-05,53.2162,338.2341,85.4445,274.6634,-6.3784e-05,-1.303e-05,0.0,0 STARLINK-5037,1 53896U 22119L   23119.00243961 -.00001303  00000-0 -63784-4 0  9998,2 53896  53.2162 338.2341 0000765  85.4445 274.6634 15.08847685 33824,6917.857,95.437,540.251,539.193,0.0
53896.0,STARLINK-5037,PAYLOAD,2023-04-29 23:54:17,15.08854595,8.53e-05,53.2155,333.7734,80.6554,279.4534,0.00031571,4.742e-05,0.0,0 STARLINK-5037,1 53896U 22119L   23119.99603426  .00004742  00000-0  31571-3 0  9998,2 53896  53.2155 333.7734 0000853  80.6554 279.4534 15.08854595 33558,6917.836,95.437,540.291,539.111,0.0
53896.0,STARLINK-5037,PAYLOAD,2023-04-30 14:12:46,15.08842129,9.14e-05,53.2159,331.0975,73.4333,286.676,0.00017723,2.534e-05,0.0,0 STARLINK-5037,1 53896U 22119L   23120.59219982  .00002534  00000-0  17723-3 0  9996,2 53896  53.2159 331.0975 0000914  73.4333 286.6760 15.08842129 34061,6917.874,95.437,540.371,539.107,0.0
53896.0,STARLINK-5037,PAYLOAD,2023-04-30 18:58:55,15.08843843,7.9e-05,53.2157,330.2051,79.9602,280.1479,0.00015331,2.153e-05,0.0,0 STARLINK-5037,1 53896U 22119L   23120.79091851  .00002153  00000-0  15331-3 0  9991,2 53896  53.2157 330.2051 0000790  79.9602 280.1479 15.08843843 33673,6917.869,95.437,540.28,539.187,0.0
53896.0,STARLINK-5037,PAYLOAD,2023-04-30 23:45:04,15.08846708,7.89e-05,53.2162,329.3122,84.2661,275.8421,0.00020238,2.935e-05,0.0,0 STARLINK-5037,1 53896U 22119L   23120.98963723  .00002935  00000-0  20238-3 0  9998,2 53896  53.2162 329.3122 0000789  84.2661 275.8421 15.08846708 34121,6917.86,95.437,540.271,539.179,0.0
53896.0,STARLINK-5037,PAYLOAD,2023-05-01 17:14:19,15.08837859,8.9e-05,53.2164,326.0415,84.1274,275.9819,-6.134e-05,-1.264e-05,0.0,0 STARLINK-5037,1 53896U 22119L   23121.71828136 -.00001264  00000-0 -61340-4 0  9994,2 53896  53.2164 326.0415 0000890  84.1274 275.9819 15.08837859 33818,6917.887,95.438,540.368,539.136,0.0
53896.0,STARLINK-5037,PAYLOAD,2023-05-01 20:25:05,15.08841048,9.13e-05,53.2165,325.4469,79.0544,281.0551,-3.7219e-05,-8.8e-06,0.0,0 STARLINK-5037,1 53896U 22119L   23121.85076027 -.00000880  00000-0 -37219-4 0  9994,2 53896  53.2165 325.4469 0000913  79.0544 281.0551 15.08841048 34255,6917.877,95.437,540.374,539.111,0.0
53896.0,STARLINK-5037,PAYLOAD,2023-05-01 23:35:51,15.08843585,9.17e-05,53.2169,324.8513,97.3593,262.7503,1.6781e-05,-2.1e-07,0.0,0 STARLINK-5037,1 53896U 22119L   23121.98323921 -.00000021  00000-0  16781-4 0  9993,2 53896  53.2169 324.8513 0000917  97.3593 262.7503 15.08843585 34276,6917.869,95.437,540.369,539.1,0.0
53896.0,STARLINK-5037,PAYLOAD,2023-05-02 20:15:52,15.08844889,9.06e-05,53.2162,320.9865,81.997,278.1125,0.00018917,2.725e-05,0.0,0 STARLINK-5037,1 53896U 22119L   23122.84435920  .00002725  00000-0  18917-3 0  9996,2 53896  53.2162 320.9865 0000906  81.9970 278.1125 15.08844889 34406,6917.865,95.437,540.357,539.104,0.0
53896.0,STARLINK-5037,PAYLOAD,2023-05-02 23:26:38,15.08847745,8.92e-05,53.216,320.3914,82.3591,277.7503,0.00022815,3.346e-05,0.0,0 STARLINK-5037,1 53896U 22119L   23122.97683763  .00003346  00000-0  22815-3 0  9992,2 53896  53.2160 320.3914 0000892  82.3591 277.7503 15.08847745 34006,6917.857,95.437,540.339,539.105,0.0
53896.0,STARLINK-5037,PAYLOAD,2023-05-03 05:48:11,15.08839756,9.97e-05,53.2159,319.2023,93.3094,266.8012,7.2303e-05,8.63e-06,0.0,0 STARLINK-5037,1 53896U 22119L   23123.24180186  .00000863  00000-0  72303-4 0  9993,2 53896  53.2159 319.2023 0000997  93.3094 266.8012 15.08839756 34049,6917.881,95.438,540.436,539.056,0.0
53896.0,STARLINK-5037,PAYLOAD,2023-05-03 13:45:07,15.08836475,9.77e-05,53.2165,317.7158,101.2919,258.8183,5.4776e-06,-2.01e-06,0.0,0 STARLINK-5037,1 53896U 22119L   23123.57300377 -.00000201  00000-0  54776-5 0  9997,2 53896  53.2165 317.7158 0000977 101.2919 258.8183 15.08836475 34518,6917.891,95.438,540.432,539.08,0.0
53896.0,STARLINK-5037,PAYLOAD,2023-05-03 21:42:03,15.08836899,8.9e-05,53.2165,316.2284,87.5235,272.5859,-5.9405e-06,-3.82e-06,0.0,0 STARLINK-5037,1 53896U 22119L   23123.90420364 -.00000382  00000-0 -59405-5 0  9998,2 53896  53.2165 316.2284 0000890  87.5235 272.5859 15.08836899 34561,6917.89,95.438,540.371,539.139,0.0
53896.0,STARLINK-5037,PAYLOAD,2023-05-04 13:35:54,15.08841379,9.1e-05,53.217,313.2545,107.423,252.6861,5.4743e-06,-2.01e-06,0.0,0 STARLINK-5037,1 53896U 22119L   23124.56660689 -.00000201  00000-0  54743-5 0  9996,2 53896  53.2170 313.2545 0000910 107.4230 252.6861 15.08841379 34666,6917.876,95.437,540.371,539.112,0.0
53896.0,STARLINK-5037,PAYLOAD,2023-05-04 18:22:04,15.08843852,8.63e-05,53.217,312.3625,100.2441,259.8648,4.1365e-05,3.71e-06,0.0,0 STARLINK-5037,1 53896U 22119L   23124.76532465  .00000371  00000-0  41365-4 0  9990,2 53896  53.2170 312.3625 0000863 100.2441 259.8648 15.08843852 34274,6917.869,95.437,540.331,539.137,0.0
53896.0,STARLINK-5037,PAYLOAD,2023-05-04 21:32:50,15.08843719,9.45e-05,53.2162,311.7674,90.7641,269.3459,6.1012e-05,6.83e-06,0.0,0 STARLINK-5037,1 53896U 22119L   23124.89780217  .00000683  00000-0  61012-4 0  9991,2 53896  53.2162 311.7674 0000945  90.7641 269.3459 15.08843719 34715,6917.869,95.437,540.388,539.08,0.0
53896.0,STARLINK-5037,PAYLOAD,2023-05-05 05:29:46,15.08833114,9.57e-05,53.2162,310.2782,81.7393,278.3708,-1.5558e-05,-5.35e-06,0.0,0 STARLINK-5037,1 53896U 22119L   23125.22900750 -.00000535  00000-0 -15558-4 0  9997,2 53896  53.2162 310.2782 0000957  81.7393 278.3708 15.08833114 34340,6917.901,95.438,540.428,539.104,0.0
53896.0,STARLINK-5037,PAYLOAD,2023-05-05 19:48:14,15.08843188,8.95e-05,53.2157,307.6044,78.2722,281.837,0.00013685,1.891e-05,0.0,0 STARLINK-5037,1 53896U 22119L   23125.82516488  .00001891  00000-0  13685-3 0  9996,2 53896  53.2157 307.6044 0000895  78.2722 281.8370 15.08843188 34439,6917.871,95.437,540.355,539.116,0.0
53896.0,STARLINK-5037,PAYLOAD,2023-05-06 11:42:05,15.08844307,0.0001001,53.2157,304.6309,76.9313,283.179,0.00019079,2.75e-05,0.0,0 STARLINK-5037,1 53896U 22119L   23126.48756607  .00002750  00000-0  19079-3 0  9996,2 53896  53.2157 304.6309 0001001  76.9313 283.1790 15.08844307 34953,6917.867,95.437,540.425,539.04,0.0
53896.0,STARLINK-5037,PAYLOAD,2023-05-07 05:11:19,15.08849337,7.26e-05,53.2141,301.36,74.7336,285.3736,0.00022684,3.325e-05,0.0,0 STARLINK-5037,1 53896U 22119L   23127.21620112  .00003325  00000-0  22684-3 0  9994,2 53896  53.2141 301.3600 0000726  74.7336 285.3736 15.08849337 34646,6917.852,95.437,540.219,539.215,0.0
53896.0,STARLINK-5037,PAYLOAD,2023-05-07 17:54:25,15.08840216,8.82e-05,53.2146,298.9808,88.4018,271.7075,7.9594e-05,9.79e-06,0.0,0 STARLINK-5037,1 53896U 22119L   23127.74612555  .00000979  00000-0  79594-4 0  9999,2 53896  53.2146 298.9808 0000882  88.4018 271.7075 15.08840216 34725,6917.88,95.438,540.355,539.135,0.0
53896.0,STARLINK-5037,PAYLOAD,2023-05-08 20:55:58,15.08853412,7.95e-05,53.2147,293.926,83.2208,276.8875,0.00035215,5.323e-05,0.0,0 STARLINK-5037,1 53896U 22119L   23128.87220153  .00005323  00000-0  35215-3 0  9992,2 53896  53.2147 293.9260 0000795  83.2208 276.8875 15.08853412 35312,6917.839,95.437,540.254,539.154,0.0
53896.0,STARLINK-5037,PAYLOAD,2023-05-09 14:25:13,15.08839037,7.29e-05,53.215,290.6535,101.736,258.3714,0.00014397,2.004e-05,0.0,0 STARLINK-5037,1 53896U 22119L   23129.60084793  .00002004  00000-0  14397-3 0  9993,2 53896  53.2150 290.6535 0000729 101.7360 258.3714 15.08839037 35423,6917.883,95.438,540.253,539.244,0.0
53896.0,STARLINK-5037,PAYLOAD,2023-05-10 03:08:18,15.0883729,7.88e-05,53.2152,288.2765,88.8745,271.2337,1.4684e-05,-5.4e-07,0.0,0 STARLINK-5037,1 53896U 22119L   23130.13076680 -.00000054  00000-0  14684-4 0  9993,2 53896  53.2152 288.2765 0000788  88.8745 271.2337 15.08837290 35503,6917.889,95.438,540.299,539.209,0.0
